EXPRESS-AMU1            
1 41191U 15082A   23121.50743823  .00000163  00000+0  00000+0 0  9991
2 41191   0.0183 259.7977 0003089 126.9673  51.1795  1.00269222 26808
GAOFEN 4                
1 41194U 15083A   23121.60814721 -.00000327  00000+0  00000+0 0  9995
2 41194   0.0204  27.4337 0003213 164.7286 351.7494  1.00265741 27071
BELINTERSAT-1           
1 41238U 16001A   23119.91270192  .00000110  00000+0  00000+0 0  9993
2 41238   0.0700  72.3163 0000539  75.4679  89.8879  1.00270161 26762
IRNSS-1E                
1 41241U 16003A   23120.94017826 -.00000270  00000+0  00000+0 0  9995
2 41241  30.6960  79.7175 0018832 182.5386  46.5423  1.00278745 26612
EUTELSAT 9B             
1 41310U 16005A   23121.33918446  .00000069  00000+0  00000+0 0  9991
2 41310   0.0776  76.6563 0002153 283.6170 349.8465  1.00273730 26653
SES-9                   
1 41380U 16013A   23121.43063675 -.00000338  00000+0  00000+0 0  9993
2 41380   0.0163 285.7744 0002168 134.8606  61.7939  1.00271595 25989
EUTELSAT 65 WEST A      
1 41382U 16014A   23121.46776896 -.00000269  00000+0  00000+0 0  9998
2 41382   0.0918  62.3885 0002061 335.1902 284.7605  1.00272949 26084
IRNSS-1F                
1 41384U 16015A   23121.27215477  .00000170  00000+0  00000+0 0  9993
2 41384   2.6843 136.1237 0020374 196.4725  16.8249  1.00277834 26200
BEIDOU-2 IGSO-6         
1 41434U 16021A   23120.80877683 -.00000160  00000+0  00000+0 0  9997
2 41434  58.5678  49.5602 0047009 226.2213 328.8039  1.00263973 26014
IRNSS-1G                
1 41469U 16027A   23121.62340847 -.00000323  00000+0  00000+0 0  9990
2 41469   2.5874 138.0754 0007136 303.9501 131.2297  1.00270012 25722
JCSAT-2B                
1 41471U 16028A   23120.41025223 -.00000161  00000+0  00000+0 0  9998
2 41471   0.0183 237.1630 0000977 158.3696 124.2627  1.00271974 25657
THAICOM 8               
1 41552U 16031A   23121.60608810 -.00000114  00000+0  00000+0 0  9991
2 41552   0.0650  52.7919 0005061 349.3077 113.8754  1.00272907 25260
INTELSAT 31 (IS-31)     
1 41581U 16035A   23119.81300133 -.00000148  00000+0  00000+0 0  9991
2 41581   0.0169 247.4942 0001747 335.2848 192.3514  1.00273260 25217
BEIDOU-2 G7             
1 41586U 16037A   23121.43107258 -.00000346  00000+0  00000+0 0  9992
2 41586   1.5840  65.8901 0009445 349.9056  69.0612  1.00272377 25337
ABS-2A (MONGOLSAT-1)    
1 41588U 16038A   23120.81080135 -.00000079  00000+0  00000+0 0  9993
2 41588   0.0107 241.0052 0001546  56.1856 287.9186  1.00271163 25220
EUTELSAT 117 WEST B     
1 41589U 16038B   23120.52554125 -.00000006  00000+0  00000+0 0  9997
2 41589   0.0131 106.2560 0000081  79.0360 105.0978  1.00270808 25203
BRISAT                  
1 41591U 16039A   23120.86553132 -.00000191  00000+0  00000+0 0  9990
2 41591   0.0172 264.2054 0002191 129.7390 286.6921  1.00272300 25140
ECHOSTAR 18             
1 41592U 16039B   23121.54285574 -.00000274  00000+0  00000+0 0  9991
2 41592   0.0137 260.1484 0001421 138.1427 315.0081  1.00271331 25163
MUOS-5                  
1 41622U 16041A   23121.54322899 -.00000138  00000+0  00000+0 0  9999
2 41622   4.8639 298.7021 0193205 242.8207 128.2560  1.00271943 25638
TIANTONG-1 1            
1 41725U 16048A   23121.31626905 -.00000311  00000+0  00000+0 0  9993
2 41725   2.2853  13.0740 0006079   7.0733  54.1198  1.00271540 24811
JCSAT-16                
1 41729U 16050A   23119.95074522 -.00000252  00000+0  00000+0 0  9993
2 41729   0.0784  88.7564 0001989 204.0160   0.1415  1.00278016 24598
USA 270                 
1 41744U 16052A   23111.37193935  .00000004  00000+0  00000+0 0  9994
2 41744   1.2295  91.8308 0000889  93.3160 335.0059  1.00138770  7185
USA 271                 
1 41745U 16052B   23121.25188451  .00000140  00000+0  00000+0 0  9991
2 41745   1.2261  91.6987 0000433 199.2702  37.2155  1.00423271  7274
INTELSAT 36 (IS-36)     
1 41747U 16053A   23121.05656998 -.00000019  00000+0  00000+0 0  9994
2 41747   0.0129 314.8298 0001187  31.6216 321.1328  1.00272334 24488
INTELSAT 33E (IS-33E)   
1 41748U 16053B   23121.57854381  .00000056  00000+0  00000+0 0  9998
2 41748   0.0194 279.1161 0001833 121.8415  86.5494  1.00272259 24790
INSAT-3DR               
1 41752U 16054A   23121.42383792 -.00000070  00000+0  00000+0 0  9998
2 41752   0.0816  90.8848 0011217 187.2325 167.5705  1.00271608 24353
GSAT-18                 
1 41793U 16060A   23121.35217200 -.00000071  00000+0  00000+0 0  9993
2 41793   0.0395  98.2523 0001715 289.1261  32.4326  1.00272781 24076
SKY MUSTER 2 (NBN1B)    
1 41794U 16060B   23121.40554512 -.00000237  00000+0  00000+0 0  9994
2 41794   0.0132 267.9858 0001539 125.2682 116.6049  1.00272191 24064
HIMAWARI-9              
1 41836U 16064A   23121.59979806 -.00000267  00000+0  00000+0 0  9995
2 41836   0.0354  80.1519 0000575 323.6962 172.1129  1.00273851 23845
SHIJIAN-17 (SJ-17)      
1 41838U 16065A   23121.62862574 -.00000351  00000+0  00000+0 0  9999
2 41838   2.8330  86.1125 0000828 142.8592 331.9582  1.00270576 23750
GOES 16                 
1 41866U 16071A   23120.46218696 -.00000244  00000+0  00000+0 0  9999
2 41866   0.0277 284.2370 0000405 127.5037 257.6048  1.00271245 23631
TIANLIAN 1-04           
1 41869U 16072A   23121.65941230  .00000039  00000+0  00000+0 0  9993
2 41869   0.0615 285.5197 0024934 203.6771 144.2818  1.00272082 23855
WGS F8 (USA 272)        
1 41879U 16075A   23121.60366861 -.00000195  00000+0  00000+0 0  9997
2 41879   0.0122 297.3358 0000117 145.5609 143.4829  1.00271829 23367
FENGYUN 4A              
1 41882U 16077A   23121.56450829 -.00000323  00000+0  00000+0 0  9999
2 41882   0.1420 288.1252 0004446 215.1064  23.9714  1.00268875 23522
ECHOSTAR 19             
1 41893U 16079A   23121.55185562 -.00000130  00000+0  00000+0 0  9997
2 41893   0.0135 244.8015 0001372 163.4469 272.5345  1.00269598 23256
JCSAT-110A (JCSAT-15)   
1 41903U 16082A   23120.99497765 -.00000345  00000+0  00000+0 0  9999
2 41903   0.0200 247.0599 0000879 143.8084 296.0632  1.00271845 23291
STAR ONE D1             
1 41904U 16082B   23121.46402087 -.00000203  00000+0  00000+0 0  9999
2 41904   0.0244 103.7351 0001878 284.1671 274.2746  1.00272708 23311
TJS-2                   
1 41911U 17001A   23121.62636168  .00000002  00000+0  00000+0 0  9992
2 41911   0.3521  86.6441 0003837 120.0563 304.5859  1.00270268 23270
SBIRS GEO-4 (USA 273)   
1 41937U 17004A   23121.55185622 -.00000139  00000+0  00000+0 0  9991
2 41937   1.7917 329.4104 0002309  56.1754 295.5403  1.00270715 23147
HISPASAT 36W-1          
1 41942U 17006A   23121.40187240 -.00000237  00000+0  00000+0 0  9990
2 41942   0.0085  71.5164 0000988 316.2343 300.0003  1.00271719 22767
TELKOM 3S               
1 41944U 17007A   23121.61641565 -.00000355  00000+0  00000+0 0  9992
2 41944   0.0075  66.7834 0002329 330.4817 161.9303  1.00272574 22681
INTELSAT 32E (IS-32E)   
1 41945U 17007B   23121.22480167 -.00000262  00000+0  00000+0 0  9996
2 41945   0.0141 248.2389 0000411  88.2884 280.1274  1.00270311 22778
ECHOSTAR 23             
1 42070U 17014A   23121.57661813 -.00000049  00000+0  00000+0 0  9994
2 42070   0.0155 248.2659 0001927 154.8507 273.8190  1.00271413 22464
WGS F9 (USA 275)        
1 42075U 17016A   23121.40666646 -.00000090  00000+0  00000+0 0  9998
2 42075   0.0161 246.1855 0000338  70.9525  36.3502  1.00267836 22434
SES-10                  
1 42432U 17017A   23121.43527723 -.00000265  00000+0  00000+0 0  9995
2 42432   0.0301  39.7806 0002691   6.2634 262.8698  1.00271341 22287
CHINASAT 16 (SJ-13)     
1 42662U 17018A   23121.63799434 -.00000345  00000+0  00000+0 0  9992
2 42662   0.0848  89.0403 0003818 159.6546 310.8063  1.00273589 22282
KOREASAT 7              
1 42691U 17023A   23121.36045265 -.00000355  00000+0  00000+0 0  9997
2 42691   0.0489  70.6114 0001352 318.5445  75.5406  1.00272186 21923
SGDC                    
1 42692U 17023B   23120.60165263 -.00000244  00000+0  00000+0 0  9992
2 42692   0.0109  90.5793 0002295 309.6741 319.7635  1.00270672 21952
GSAT-9                  
1 42695U 17024A   23121.42845764 -.00000279  00000+0  00000+0 0  9996
2 42695   0.1239  95.3323 0002828 277.0292  98.2825  1.00270783 21855
INMARSAT 5-F4           
1 42698U 17025A   23121.41855087  .00000082  00000+0  00000+0 0  9999
2 42698   0.0157 252.0661 0000147 323.6543 210.5352  1.00270569 21814
SES-15                  
1 42709U 17026A   23121.57015278  .00000068  00000+0  00000+0 0  9994
2 42709   0.0305  65.8362 0000346 328.7656 260.7444  1.00270290 22688
QZS-2 (MICHIBIKI-2)     
1 42738U 17028A   23120.72112906 -.00000222  00000+0  00000+0 0  9993
2 42738  41.2486 259.6662 0739977 270.6948  85.4002  1.00249963 21685
VIASAT-2                
1 42740U 17029A   23121.46681014 -.00000258  00000+0  00000+0 0  9999
2 42740   0.0187 269.1062 0000069  40.9628   7.2154  1.00271745 21723
EUTELSAT 172B           
1 42741U 17029B   23121.58816104  .00000002  00000+0  00000+0 0  9999
2 42741   0.0543 153.4998 0000156  73.4462  16.0517  1.00271542 22263
GSAT-19                 
1 42747U 17031A   23121.49841088  .00000132  00000+0  00000+0 0  9991
2 42747   0.0757  94.5780 0006726 334.4668  17.4288  1.00272077 21675
ECHOSTAR 21             
1 42749U 17032A   23121.26770937  .00000066  00000+0  00000+0 0  9999
2 42749   3.3254 313.1571 0002341  85.1404 287.2697  1.00272010 21656
BULGARIASAT-1           
1 42801U 17038A   23121.25743848  .00000018  00000+0  00000+0 0  9991
2 42801   0.0548  95.0886 0002691 309.5726 268.8474  1.00273335 21365
HELLAS-SAT 3            
1 42814U 17040A   23121.06229998  .00000158  00000+0  00000+0 0  9997
2 42814   0.0572   5.7672 0005176  19.4913 254.9103  1.00274572 21351
GSAT-17                 
1 42815U 17040B   23121.35600726 -.00000251  00000+0  00000+0 0  9997
2 42815   0.0843  94.4758 0003245 212.2070 134.0060  1.00273063 21326
